{"type": "FeatureCollection", "features": [ {"type": "Feature", "properties": {"norad_id": 30996, "name": "FENGYUN 1C DEB", "group": "fengyun-1c-debris", "lat": -49.29910185556923, "lon": 70.34293862685205, "alt_km": 751.4355458261962, "timestamp": "2025-12-21T14:40:48.196503+00:00", "meta": {"OBJECT_NAME": "FENGYUN 1C DEB", "OBJECT_ID": "1999-025BCN", "EPOCH": "2025-12-19T13:39:37.253952", "MEAN_MOTION": 14.35444243, "ECCENTRICITY": 0.0049722, "INCLINATION": 98.9441, "RA_OF_ASC_NODE": 258.7763, "ARG_OF_PERICENTER": 271.6655, "MEAN_ANOMALY": 209.9172, "EPHEMERIS_TYPE": 0, "CLASSIFICATION_TYPE": "U", "NORAD_CAT_ID": 30996, "ELEMENT_SET_NO": 999, "REV_AT_EPOCH": 97661, "BSTAR": 0.00061131, "MEAN_MOTION_DOT": 1.734e-05, "MEAN_MOTION_DDOT": 0}, "tle": {"line1": "1 30996U 99025BCN 25353.56918118  .00001734  00000+0  61131-3 0  9998", "line2": "2 30996  98.9441 258.7763 0049722 271.6655 209.9172 14.35444243976611"}}, "geometry": {"type": "Point", "coordinates": [70.34293862685205, -49.29910185556923]}}, {"type": "Feature", "properties": {"norad_id": 30998, "name": "FENGYUN 1C DEB", "group": "fengyun-1c-debris", "lat": -73.28276965744796, "lon": 110.65163679568025, "alt_km": 743.0046472544655, "timestamp": "2025-12-21T14:40:48.196513+00:00", "meta": {"OBJECT_NAME": "FENGYUN 1C DEB", "OBJECT_ID": "1999-025BCQ", "EPOCH": "2025-12-20T04:30:51.287904", "MEAN_MOTION": 14.48018503, "ECCENTRICITY": 0.00128512, "INCLINATION": 98.8292, "RA_OF_ASC_NODE": 77.9998, "ARG_OF_PERICENTER": 174.9572, "MEAN_ANOMALY": 252.5169, "EPHEMERIS_TYPE": 0, "CLASSIFICATION_TYPE": "U", "NORAD_CAT_ID": 30998, "ELEMENT_SET_NO": 999, "REV_AT_EPOCH": 97298, "BSTAR": 0.0014852298, "MEAN_MOTION_DOT": 5.479e-05, "MEAN_MOTION_DDOT": 0}, "tle": {"line1": "1 30998U 99025BCQ 25354.18809361  .00005479  00000+0  14852-2 0  9995", "line2": "2 30998  98.8292  77.9998 0012851 174.9572 252.5169 14.48018503972989"}}, "geometry": {"type": "Point", "coordinates": [110.65163679568025, -73.28276965744796]}}, {"type": "Feature", "properties": {"norad_id": 30999, "name": "FENGYUN 1C DEB", "group": "fengyun-1c-debris", "lat": 13.817483582611489, "lon": 167.91598804842582, "alt_km": 662.3547708656561, "timestamp": "2025-12-21T14:40:48.196523+00:00", "meta": {"OBJECT_NAME": "FENGYUN 1C DEB", "OBJECT_ID": "1999-025BCR", "EPOCH": "2025-12-20T10:37:34.410432", "MEAN_MOTION": 14.58456504, "ECCENTRICITY": 0.01127709, "INCLINATION": 99.0906, "RA_OF_ASC_NODE": 168.8952, "ARG_OF_PERICENTER": 314.5206, "MEAN_ANOMALY": 44.6818, "EPHEMERIS_TYPE": 0, "CLASSIFICATION_TYPE": "U", "NORAD_CAT_ID": 30999, "ELEMENT_SET_NO": 999, "REV_AT_EPOCH": 98943, "BSTAR": 0.00039716453, "MEAN_MOTION_DOT": 1.949e-05, "MEAN_MOTION_DDOT": 0}, "tle": {"line1": "1 30999U 99025BCR 25354.44275938  .00001949  00000+0  39716-3 0  9997", "line2": "2 30999  99.0906 168.8952 0112770 314.5206  44.6818 14.58456504989439"}}, "geometry": {"type": "Point", "coordinates": [167.91598804842582, 13.817483582611489]}}, {"type": "Feature", "properties": {"norad_id": 31000, "name": "FENGYUN 1C DEB", "group": "fengyun-1c-debris", "lat": -72.95491189421296, "lon": 177.16513918856793, "alt_km": 966.0718964388034, "timestamp": "2025-12-21T14:40:48.196539+00:00", "meta": {"OBJECT_NAME": "FENGYUN 1C DEB", "OBJECT_ID": "1999-025BCS", "EPOCH": "2025-12-17T13:05:26.702016", "MEAN_MOTION": 14.09652447, "ECCENTRICITY": 0.01651917, "INCLINATION": 97.566, "RA_OF_ASC_NODE": 19.4331, "ARG_OF_PERICENTER": 52.2814, "MEAN_ANOMALY": 100.2146, "EPHEMERIS_TYPE": 0, "CLASSIFICATION_TYPE": "U", "NORAD_CAT_ID": 31000, "ELEMENT_SET_NO": 999, "REV_AT_EPOCH": 70024, "BSTAR": 0.00053497673, "MEAN_MOTION_DOT": 1.032e-05, "MEAN_MOTION_DDOT": 0}, "tle": {"line1": "1 31000U 99025BCS 25351.54544794  .00001032  00000+0  53498-3 0  9994", "line2": "2 31000  97.5660  19.4331 0165191  52.2814 100.2146 14.09652447700244"}}, "geometry": {"type": "Point", "coordinates": [177.16513918856793, -72.95491189421296]}}, {"type": "Feature", "properties": {"norad_id": 31001, "name": "FENGYUN 1C DEB", "group": "fengyun-1c-debris", "lat": 2.4163459261348708, "lon": -131.12047505598196, "alt_km": 809.1030896375196, "timestamp": "2025-12-21T14:40:48.196549+00:00", "meta": {"OBJECT_NAME": "FENGYUN 1C DEB", "OBJECT_ID": "1999-025BCT", "EPOCH": "2025-12-21T03:01:06.477888", "MEAN_MOTION": 14.42880653, "ECCENTRICITY": 0.01471177, "INCLINATION": 99.2718, "RA_OF_ASC_NODE": 228.7462, "ARG_OF_PERICENTER": 127.9463, "MEAN_ANOMALY": 233.5125, "EPHEMERIS_TYPE": 0, "CLASSIFICATION_TYPE": "U", "NORAD_CAT_ID": 31001, "ELEMENT_SET_NO": 999, "REV_AT_EPOCH": 98327, "BSTAR": 0.00022560539, "MEAN_MOTION_DOT": 8.02e-06, "MEAN_MOTION_DDOT": 0}, "tle": {"line1": "1 31001U 99025BCT 25355.12576942  .00000802  00000+0  22561-3 0  9994", "line2": "2 31001  99.2718 228.7462 0147117 127.9463 233.5125 14.42880653983278"}}, "geometry": {"type": "Point", "coordinates": [-131.12047505598196, 2.4163459261348708]}}, {"type": "Feature", "properties": {"norad_id": 31002, "name": "FENGYUN 1C DEB", "group": "fengyun-1c-debris", "lat": 79.7672284662072, "lon": -112.63711123950847, "alt_km": 936.6613213734709, "timestamp": "2025-12-21T14:40:48.196559+00:00", "meta": {"OBJECT_NAME": "FENGYUN 1C DEB", "OBJECT_ID": "1999-025BCU", "EPOCH": "2025-12-20T21:37:46.056000", "MEAN_MOTION": 13.9920967, "ECCENTRICITY": 0.0098565, "INCLINATION": 98.885, "RA_OF_ASC_NODE": 6.6158, "ARG_OF_PERICENTER": 325.1028, "MEAN_ANOMALY": 152.4938, "EPHEMERIS_TYPE": 0, "CLASSIFICATION_TYPE": "U", "NORAD_CAT_ID": 31002, "ELEMENT_SET_NO": 999, "REV_AT_EPOCH": 95719, "BSTAR": 0.00023571, "MEAN_MOTION_DOT": 3.13e-06, "MEAN_MOTION_DDOT": 0}, "tle": {"line1": "1 31002U 99025BCU 25354.90122750  .00000313  00000+0  23571-3 0  9993", "line2": "2 31002  98.8850   6.6158 0098565 325.1028 152.4938 13.99209670957195"}}, "geometry": {"type": "Point", "coordinates": [-112.63711123950847, 79.7672284662072]}}, {"type": "Feature", "properties": {"norad_id": 31003, "name": "FENGYUN 1C DEB", "group": "fengyun-1c-debris", "lat": -3.2807412303677554, "lon": -108.04470281805767, "alt_km": 782.6828252839605, "timestamp": "2025-12-21T14:40:48.196569+00:00", "meta": {"OBJECT_NAME": "FENGYUN 1C DEB", "OBJECT_ID": "1999-025BCV", "EPOCH": "2025-12-20T04:06:45.999936", "MEAN_MOTION": 14.24738155, "ECCENTRICITY": 0.00419876, "INCLINATION": 98.8429, "RA_OF_ASC_NODE": 71.0165, "ARG_OF_PERICENTER": 193.6229, "MEAN_ANOMALY": 166.382, "EPHEMERIS_TYPE": 0, "CLASSIFICATION_TYPE": "U", "NORAD_CAT_ID": 31003, "ELEMENT_SET_NO": 999, "REV_AT_EPOCH": 96615, "BSTAR": 0.00091425711, "MEAN_MOTION_DOT": 2.104e-05, "MEAN_MOTION_DDOT": 0}, "tle": {"line1": "1 31003U 99025BCV 25354.17136574  .00002104  00000+0  91426-3 0  9996", "line2": "2 31003  98.8429  71.0165 0041987 193.6229 166.3820 14.24738155966153"}}, "geometry": {"type": "Point", "coordinates": [-108.04470281805767, -3.2807412303677554]}}, {"type": "Feature", "properties": {"norad_id": 31005, "name": "FENGYUN 1C DEB", "group": "fengyun-1c-debris", "lat": -45.251300014386594, "lon": -60.17491885383389, "alt_km": 923.0924503665119, "timestamp": "2025-12-21T14:40:48.196579+00:00", "meta": {"OBJECT_NAME": "FENGYUN 1C DEB", "OBJECT_ID": "1999-025BCX", "EPOCH": "2025-12-19T20:39:31.442112", "MEAN_MOTION": 13.83298695, "ECCENTRICITY": 0.0180827, "INCLINATION": 98.6131, "RA_OF_ASC_NODE": 127.0159, "ARG_OF_PERICENTER": 305.9328, "MEAN_ANOMALY": 207.4359, "EPHEMERIS_TYPE": 0, "CLASSIFICATION_TYPE": "U", "NORAD_CAT_ID": 31005, "ELEMENT_SET_NO": 999, "REV_AT_EPOCH": 94379, "BSTAR": 0.00095824, "MEAN_MOTION_DOT": 1.153e-05, "MEAN_MOTION_DDOT": 0}, "tle": {"line1": "1 31005U 99025BCX 25353.86078058  .00001153  00000+0  95824-3 0  9994", "line2": "2 31005  98.6131 127.0159 0180827 305.9328 207.4359 13.83298695943796"}}, "geometry": {"type": "Point", "coordinates": [-60.17491885383389, -45.251300014386594]}}, {"type": "Feature", "properties": {"norad_id": 31007, "name": "FENGYUN 1C DEB", "group": "fengyun-1c-debris", "lat": -0.5056671743057987, "lon": 167.10841749626647, "alt_km": 746.6315586166183, "timestamp": "2025-12-21T14:40:48.196601+00:00", "meta": {"OBJECT_NAME": "FENGYUN 1C DEB", "OBJECT_ID": "1999-025BCZ", "EPOCH": "2025-12-20T04:56:01.743072", "MEAN_MOTION": 14.58784979, "ECCENTRICITY": 0.0066874, "INCLINATION": 98.0867, "RA_OF_ASC_NODE": 345.8115, "ARG_OF_PERICENTER": 15.0833, "MEAN_ANOMALY": 345.234, "EPHEMERIS_TYPE": 0, "CLASSIFICATION_TYPE": "U", "NORAD_CAT_ID": 31007, "ELEMENT_SET_NO": 999, "REV_AT_EPOCH": 98203, "BSTAR": 0.0014644, "MEAN_MOTION_DOT": 7.016e-05, "MEAN_MOTION_DDOT": 0}, "tle": {"line1": "1 31007U 99025BCZ 25354.20557573  .00007016  00000+0  14644-2 0  9993", "line2": "2 31007  98.0867 345.8115 0066874  15.0833 345.2340 14.58784979982034"}}, "geometry": {"type": "Point", "coordinates": [167.10841749626647, -0.5056671743057987]}}, {"type": "Feature", "properties": {"norad_id": 31009, "name": "FENGYUN 1C DEB", "group": "fengyun-1c-debris", "lat": 28.256072480722505, "lon": -13.63304134401574, "alt_km": 929.6646972590324, "timestamp": "2025-12-21T14:40:48.196615+00:00", "meta": {"OBJECT_NAME": "FENGYUN 1C DEB", "OBJECT_ID": "1999-025BDB", "EPOCH": "2025-12-19T23:23:03.642144", "MEAN_MOTION": 14.00366441, "ECCENTRICITY": 0.0053012, "INCLINATION": 98.8966, "RA_OF_ASC_NODE": 349.603, "ARG_OF_PERICENTER": 216.8042, "MEAN_ANOMALY": 202.1683, "EPHEMERIS_TYPE": 0, "CLASSIFICATION_TYPE": "U", "NORAD_CAT_ID": 31009, "ELEMENT_SET_NO": 999, "REV_AT_EPOCH": 95962, "BSTAR": 3.4041e-05, "MEAN_MOTION_DOT": 8e-08, "MEAN_MOTION_DDOT": 0}, "tle": {"line1": "1 31009U 99025BDB 25353.97434771  .00000008  00000+0  34041-4 0  9991", "line2": "2 31009  98.8966 349.6030 0053012 216.8042 202.1683 14.00366441959622"}}, "geometry": {"type": "Point", "coordinates": [-13.63304134401574, 28.256072480722505]}}]}